CUBEBUG-2 (LO-74)       
1 39440U 13066AA  25176.59374089  .00002441  00000+0  24963-3 0  9999
2 39440  97.8501 121.0441 0063235 126.3063 234.4017 14.90016019625022
FUNCUBE-1 (AO-73)       
1 39444U 13066AE  25176.79729340  .00004183  00000+0  31391-3 0  9997
2 39444  97.7810 138.7765 0041417 334.0798  25.8351 15.02518754626024
UWE-3                   
1 39446U 13066AG  25176.62210908  .00002964  00000+0  28252-3 0  9993
2 39446  97.8249 127.4571 0054775  66.6290 294.0678 14.93005714624306
UNISAT-6                
1 40012U 14033C   25176.85094334  .00002492  00000+0  29030-3 0  9998
2 40012  97.7436 332.5901 0048319 159.8764 200.4371 14.85303604593214
DUCHIFAT-1              
1 40021U 14033M   25177.01834466  .00014737  00000+0  52339-3 0  9998
2 40021  98.0934 192.7907 0006812 252.4654 107.5840 15.29131671600830
QB50P1                  
1 40025U 14033R   25176.70489288  .00005543  00000+0  33862-3 0  9990
2 40025  98.0826 160.1958 0010436  10.5845 349.5600 15.10694176599070
LILACSAT-2              
1 40908U 15049K   25177.18858357  .00008959  00000+0  23198-3 0  9993
2 40908  97.5042 197.9383 0011098 100.8008 259.4487 15.39234194540780
LAPAN-A2 (IO-86)        
1 40931U 15052B   25151.18580175  .00001241  00000+0  78118-4 0  9995
2 40931   6.0006  24.0987 0012733 338.8432  21.1169 14.78805930523047
FOX-1A (AO-85)          
1 40967U 15058D   25177.06468009  .00003510  00000+0  31607-3 0  9998
2 40967  64.7771 303.4107 0158696 190.1439 169.6460 14.88144761 60529
CAS-2T & KS-1Q          
1 41847U 16066G   25176.48671506  .00001296  00000+0  19127-3 0  9991
2 41847  98.4199 250.8103 0347000 130.2886 232.9190 14.43530487453318
ZHUHAI-1 02 (CAS-4B)    
1 42759U 17034B   25177.06777588  .00051621  00000+0  50110-3 0  9996
2 42759  43.0046 223.4584 0019719  41.8740 318.3630 15.65286571445187
ZHUHAI-1 01 (CAS-4A)    
1 42761U 17034D   25177.08689423  .00059717  00000+0  54667-3 0  9996
2 42761  43.0084 220.3113 0020725  46.8936 313.3660 15.66661920445215
RADFXSAT (FOX-1B)       
1 43017U 17073E   25176.88458294  .00005978  00000+0  30395-3 0  9993
2 43017  97.5229  47.2451 0173808 110.8682 251.1252 15.04945468411669
DIWATA-2B               
1 43678U 18084H   25177.08340906  .00001245  00000+0  10978-3 0  9990
2 43678  98.1026 353.8379 0007952 227.9697 132.0848 14.98384988362851
ES'HAIL 2               
1 43700U 18090A   25176.86154721  .00000141  00000+0  00000+0 0  9991
2 43700   0.0175 339.9896 0002236 158.0438 112.1706  1.00273642 24108
FOX-1CLIFF (AO-95)      
1 43770U 18099N   25175.68448891  .00005597  00000+0  28250-3 0  9991
2 43770  97.4912 233.6043 0011586 152.9505 207.2334 15.17457006358849
ITASAT                  
1 43786U 18099AE  25176.41823268  .00004218  00000+0  24129-3 0  9995
2 43786  97.4560 230.4153 0015366 146.9110 213.3086 15.13094667358856
JY1SAT (JO-97)          
1 43803U 18099AX  25177.09733273  .00008557  00000+0  38687-3 0  9990
2 43803  97.4653 236.0280 0009084  90.9335 269.2942 15.21142107359280
UWE-4                   
1 43880U 18111E   25176.21125205  .00008462  00000+0  32861-3 0  9996
2 43880  97.5901  89.3233 0012938 147.5693 212.6342 15.26263591356017
DUCHIFAT-3              
1 44854U 19089C   25176.56386534  .00026774  00000+0  50264-3 0  9998
2 44854  36.9420 253.4716 0003342  92.9343 267.1797 15.47751551305425
TIANYAN 01              
1 44881U 19093C   25177.06152534  .00000623  00000+0  78003-4 0  9997
2 44881  97.7923 252.3668 0014007 171.6480 188.4971 14.85628838298522
RS-44 & BREEZE-KM R/B   
1 44909U 19096E   25177.04986472  .00000031  00000+0  88718-4 0  9992
2 44909  82.5202 216.3360 0216280 257.0091 100.6782 12.79741491256834
SALSAT                  
1 46495U 20068K   25176.84596077  .00004743  00000+0  20503-3 0  9991
2 46495  97.8606 155.6283 0013096 104.3101 255.9590 15.22923900261002
LEDSAT                  
1 49069U 21073D   25176.19667351  .00044221  00000+0  49311-3 0  9993
2 49069  97.3890 258.4083 0007449  25.6038 334.5587 15.62662565213874
XW-3 (CAS-9)            
1 50466U 21131B   25177.08043248  .00000318  00000+0  11317-3 0  9997
2 50466  98.5108 266.3527 0005437  89.7662 270.4150 14.40830812183824
GREENCUBE (IO-117)      
1 53109U 22080E   25175.99877741 -.00000003  00000+0  00000+0 0  9994
2 53109  70.1411  62.4576 0008684   6.6739 353.4035  6.42583727 69115
STRATOSAT-TK 1 (RS52S)  
1 57167U 23091B   25177.20492339  .00031931  00000+0  76734-3 0  9991
2 57167  97.5519 241.2480 0007446 237.6190 122.4336 15.41246105110578
UMKA 1 (RS40S)          
1 57172U 23091G   25177.11415160  .00003691  00000+0  19815-3 0  9993
2 57172  97.5572 232.4108 0012677 277.6738  82.3055 15.15504425109984
CUBESX-HSE 3 (RS42S)    
1 57178U 23091N   25177.10201432  .00006966  00000+0  31678-3 0  9992
2 57178  97.5602 234.9029 0011857 263.0190  96.9696 15.20994726110126
MONITOR-3 (RS58S)       
1 57180U 23091Q   25177.08137915  .00005573  00000+0  26678-3 0  9993
2 57180  97.5596 234.1051 0012481 266.3555  93.6252 15.19309372110074
